NORAD_CAT_ID,OBJECT_NAME,OBJECT_TYPE,EPOCH,MEAN_MOTION,ECCENTRICITY,INCLINATION,RA_OF_ASC_NODE,ARG_OF_PERICENTER,MEAN_ANOMALY,BSTAR,MEAN_MOTION_DOT,MEAN_MOTION_DDOT,TLE_LINE0,TLE_LINE1,TLE_LINE2,SEMIMAJOR_AXIS,PERIOD,APOGEE,PERIGEE,DECAYED
53603.0,STARLINK-4692,PAYLOAD,2022-12-24 18:52:11,15.0883932,0.0002029,53.2193,95.8393,39.4178,320.6961,4.017e-05,3.51e-06,0.0,0 STARLINK-4692,1 53603U 22104R   22358.78624584  .00000351  00000-0  40170-4 0  9995,2 53603  53.2193  95.8393 0002029  39.4178 320.6961 15.08839320 18919,6917.882,95.438,541.151,538.344,0.0
53603.0,STARLINK-4692,PAYLOAD,2022-12-25 10:46:03,15.08835322,0.0002021,53.2193,92.8657,35.9233,324.1895,6.2325e-05,7.04e-06,0.0,0 STARLINK-4692,1 53603U 22104R   22359.44864982  .00000704  00000-0  62325-4 0  9995,2 53603  53.2193  92.8657 0002021  35.9233 324.1895 15.08835322 19019,6917.895,95.438,541.158,538.362,0.0
53603.0,STARLINK-4692,PAYLOAD,2022-12-25 18:42:58,15.08837407,0.0002015,53.2191,91.3783,36.4513,323.6616,4.5835e-05,4.41e-06,0.0,0 STARLINK-4692,1 53603U 22104R   22359.77984932  .00000441  00000-0  45835-4 0  9994,2 53603  53.2191  91.3783 0002015  36.4513 323.6616 15.08837407 19067,6917.888000000001,95.438,541.1469999999998,538.359,0.0
53603.0,STARLINK-4692,PAYLOAD,2022-12-26 12:12:13,15.08836542,0.000205,53.2192,88.1078,36.6518,323.4614,2.932e-05,1.78e-06,0.0,0 STARLINK-4692,1 53603U 22104R   22360.50849394  .00000178  00000-0  29320-4 0  9997,2 53603  53.2192  88.1078 0002050  36.6518 323.4614 15.08836542 19172,6917.891,95.438,541.174,538.3380000000002,0.0
53603.0,STARLINK-4692,PAYLOAD,2022-12-26 15:22:59,15.08842481,0.0002182,53.2194,87.5142,29.1264,330.985,2.0272e-05,3.4e-07,0.0,0 STARLINK-4692,1 53603U 22104R   22360.64096992  .00000034  00000-0  20272-4 0  9998,2 53603  53.2194  87.5142 0002182  29.1264 330.9850 15.08842481 19196,6917.873000000001,95.437,541.247,538.2280000000002,0.0
53603.0,STARLINK-4692,PAYLOAD,2022-12-27 05:41:27,15.08844609,0.0002119,53.2195,84.8378,37.7862,322.3279,8.1219e-05,1.005e-05,0.0,0 STARLINK-4692,1 53603U 22104R   22361.23712671  .00001005  00000-0  81219-4 0  9990,2 53603  53.2195  84.8378 0002119  37.7862 322.3279 15.08844609 18594,6917.866,95.437,541.197,538.265,0.0
53603.0,STARLINK-4692,PAYLOAD,2022-12-28 08:42:59,15.08856553,0.0002156,53.2192,79.7862,16.5432,343.5630000000001,0.00025949,3.846e-05,0.0,0 STARLINK-4692,1 53603U 22104R   22362.36319433  .00003846  00000-0  25949-3 0  9996,2 53603  53.2192  79.7862 0002156  16.5432 343.5630 15.08856553 18767,6917.83,95.437,541.186,538.203,0.0
53603.0,STARLINK-4692,PAYLOAD,2022-12-29 05:23:01,15.08833772,0.0002543,53.2168,75.9163,43.9763,316.1431,-0.00025489,-4.342e-05,0.0,0 STARLINK-4692,1 53603U 22104R   22363.22432488 -.00004342  00000-0 -25489-3 0  9991,2 53603  53.2168  75.9163 0002543  43.9763 316.1431 15.08833772 18890,6917.899,95.438,541.524,538.005,0.0
53603.0,STARLINK-4692,PAYLOAD,2022-12-29 11:44:36,15.08818141,0.0002399,53.2194,74.7295,29.9527,330.1602,-0.00026526,-4.505e-05,0.0,0 STARLINK-4692,1 53603U 22104R   22363.48930937 -.00004505  00000-0 -26526-3 0  9995,2 53603  53.2194  74.7295 0002399  29.9527 330.1602 15.08818141 18937,6917.946999999999,95.439,541.472,538.153,0.0
53603.0,STARLINK-4692,PAYLOAD,2022-12-30 03:38:27,15.088240099999998,0.0002019,53.2198,71.7536,32.7031,327.4086,-0.0001616,-2.858e-05,0.0,0 STARLINK-4692,1 53603U 22104R   22364.15170953 -.00002858  00000-0 -16160-3 0  9996,2 53603  53.2198  71.7536 0002019  32.7031 327.4086 15.08824010 19036,6917.929,95.439,541.191,538.398,0.0
53603.0,STARLINK-4692,PAYLOAD,2022-12-30 11:35:21,15.08842686,0.0002073,53.2194,70.2672,30.2314,329.8797,0.00016564,2.349e-05,0.0,0 STARLINK-4692,1 53603U 22104R   22364.48289112  .00002349  00000-0  16564-3 0  9991,2 53603  53.2194  70.2672 0002073  30.2314 329.8797 15.08842686 19083,6917.871999999999,95.437,541.1709999999998,538.303,0.0
53603.0,STARLINK-4692,PAYLOAD,2022-12-30 16:21:30,15.08850532,0.000217,53.2197,69.3758,28.9059,331.2053,0.00020461,2.971e-05,0.0,0 STARLINK-4692,1 53603U 22104R   22364.68160514  .00002971  00000-0  20461-3 0  9999,2 53603  53.2197  69.3758 0002170  28.9059 331.2053 15.08850532 19113,6917.848000000001,95.437,541.214,538.212,0.0
53603.0,STARLINK-4692,PAYLOAD,2022-12-31 11:26:08,15.08854961,0.0002106999999999,53.2188,65.8045,36.7771,323.3366,0.000515,7.921e-05,0.0,0 STARLINK-4692,1 53603U 22104R   22365.47648775  .00007921  00000-0  51500-3 0  9995,2 53603  53.2188  65.8045 0002107  36.7771 323.3366 15.08854961 19233,6917.835,95.437,541.1569999999998,538.242,0.0
53603.0,STARLINK-4692,PAYLOAD,2022-12-31 14:36:54,15.08851329,0.0002273,53.2189,65.2117,26.9451,333.1659,0.0003768999999999,5.717e-05,0.0,0 STARLINK-4692,1 53603U 22104R   22365.60896839  .00005717  00000-0  37690-3 0  9991,2 53603  53.2189  65.2117 0002273  26.9451 333.1659 15.08851329 19945,6917.846,95.437,541.283,538.138,0.0
53603.0,STARLINK-4692,PAYLOAD,2023-01-01 12:52:21,15.08822918,0.0002136,53.2199,61.0499,31.0719,329.0399,-0.00020689,-3.578e-05,0.0,0 STARLINK-4692,1 53603U 22104R   23001.53635429 -.00003578  00000-0 -20689-3 0  9992,2 53603  53.2199  61.0499 0002136  31.0719 329.0399 15.08822918 19391,6917.933000000001,95.439,541.275,538.32,0.0
53603.0,STARLINK-4692,PAYLOAD,2023-01-01 20:49:16,15.08832125,0.0002213,53.2198,59.5634,29.1344,330.9771,-0.00018016,-3.154e-05,0.0,0 STARLINK-4692,1 53603U 22104R   23001.86754934 -.00003154  00000-0 -18016-3 0  9992,2 53603  53.2198  59.5634 0002213  29.1344 330.9771 15.08832125 20131,6917.904,95.438,541.3,538.239,0.0
53603.0,STARLINK-4692,PAYLOAD,2023-01-02 04:46:11,15.08839389,0.0002099,53.2187,58.0762,26.347,333.7628,-0.00019747,-3.43e-05,0.0,0 STARLINK-4692,1 53603U 22104R   23002.19874416 -.00003430  00000-0 -19747-3 0  9996,2 53603  53.2187  58.0762 0002099  26.3470 333.7628 15.08839389 19494,6917.882,95.438,541.1990000000002,538.295,0.0
53603.0,STARLINK-4692,PAYLOAD,2023-01-02 09:32:20,15.08840229,0.0002351,53.2194,57.1834,32.759,327.3547,-1.6949e-05,-5.58e-06,0.0,0 STARLINK-4692,1 53603U 22104R   23002.39745923 -.00000558  00000-0 -16949-4 0  9998,2 53603  53.2194  57.1834 0002351  32.7590 327.3547 15.08840229 20213,6917.88,95.438,541.371,538.118,0.0
53603.0,STARLINK-4692,PAYLOAD,2023-01-02 20:40:02,15.08843278,0.0002451,53.2194,55.1022,33.2554,326.8592,0.00015956,2.252e-05,0.0,0 STARLINK-4692,1 53603U 22104R   23002.86113642  .00002252  00000-0  15956-3 0  9994,2 53603  53.2194  55.1022 0002451  33.2554 326.8592 15.08843278 19597,6917.87,95.437,541.431,538.04,0.0
53603.0,STARLINK-4692,PAYLOAD,2023-01-03 03:01:35,15.08838428,0.0002333,53.219,53.9133,33.6524,326.4616,0.00030923,4.636e-05,0.0,0 STARLINK-4692,1 53603U 22104R   23003.12610188  .00004636  00000-0  30923-3 0  9990,2 53603  53.2190  53.9133 0002333  33.6524 326.4616 15.08838428 19631,6917.885,95.438,541.364,538.136,0.0
53603.0,STARLINK-4692,PAYLOAD,2023-01-03 09:23:07,15.08848294,0.0002452,53.219,52.7239,33.8347,326.2802,0.00033649,5.072e-05,0.0,0 STARLINK-4692,1 53603U 22104R   23003.39105945  .00005072  00000-0  33649-3 0  9992,2 53603  53.2190  52.7239 0002452  33.8347 326.2802 15.08848294 20361,6917.855,95.437,541.4159999999998,538.024,0.0
53603.0,STARLINK-4692,PAYLOAD,2023-01-04 09:13:55,15.08839649,0.0002465,53.2182,48.2642,34.4178,325.6973,0.0001341999999999,1.848e-05,0.0,0 STARLINK-4692,1 53603U 22104R   23004.38466483  .00001848  00000-0  13420-3 0  9991,2 53603  53.2182  48.2642 0002465  34.4178 325.6973 15.08839649 19828,6917.880999999999,95.438,541.452,538.0409999999998,0.0
53603.0,STARLINK-4692,PAYLOAD,2023-01-05 02:43:08,15.08862394,0.000252,53.2186,44.9932,29.0139,331.0992,0.00046086,7.059e-05,0.0,0 STARLINK-4692,1 53603U 22104R   23005.11329440  .00007059  00000-0  46086-3 0  9998,2 53603  53.2186  44.9932 0002520  29.0139 331.0992 15.08862394 19933,6917.812,95.436,541.42,537.934,0.0
53603.0,STARLINK-4692,PAYLOAD,2023-01-05 09:04:40,15.08866529,0.0002508999999999,53.2193,43.8047,29.2924,330.8208,0.00051368,7.902e-05,0.0,0 STARLINK-4692,1 53603U 22104R   23005.37825055  .00007902  00000-0  51368-3 0  9995,2 53603  53.2193  43.8047 0002509  29.2924 330.8208 15.08866529 20660,6917.799,95.436,541.4,537.929,0.0
53603.0,STARLINK-4692,PAYLOAD,2023-01-06 10:30:51,15.08825183,0.0002401,53.2201,39.0451,25.9961,334.1151,-0.00055896,-9.17e-05,0.0,0 STARLINK-4692,1 53603U 22104R   23006.43809389 -.00009170  00000-0 -55896-3 0  9996,2 53603  53.2201  39.0451 0002401  25.9961 334.1151 15.08825183 20138,6917.926,95.438,541.452,538.13,0.0
53603.0,STARLINK-4692,PAYLOAD,2023-01-06 12:06:14,15.08823208,0.000234,53.2211,38.7482,25.2724,334.8382,-0.00056785,-9.31e-05,0.0,0 STARLINK-4692,1 53603U 22104R   23006.50433513 -.00009310  00000-0 -56785-3 0  9990,2 53603  53.2211  38.7482 0002340  25.2724 334.8382 15.08823208 20837,6917.932,95.439,541.4159999999998,538.178,0.0
53603.0,STARLINK-4692,PAYLOAD,2023-01-07 02:24:43,15.0883511,0.000238,53.2199,36.0732,26.8642,333.2473,5.6125e-05,6.05e-06,0.0,0 STARLINK-4692,1 53603U 22104R   23007.10049855  .00000605  00000-0  56125-4 0  9994,2 53603  53.2199  36.0732 0002380  26.8642 333.2473 15.08835110 20234,6917.895,95.438,541.4069999999998,538.114,0.0
53603.0,STARLINK-4692,PAYLOAD,2023-01-07 18:18:35,15.08836164,0.000286,53.2196,33.0988,35.4945,324.6237,0.00075453,0.0001174,0.0,0 STARLINK-4692,1 53603U 22104R   23007.76290888  .00011740  00000-0  75453-3 0  9996,2 53603  53.2196  33.0988 0002860  35.4945 324.6237 15.08836164 21026,6917.892,95.438,541.736,537.779,0.0
53603.0,STARLINK-4692,PAYLOAD,2023-01-08 02:15:31,15.08824862,0.000233,53.2198,31.6126,37.2667,322.8486,0.0002452,3.615e-05,0.0,0 STARLINK-4692,1 53603U 22104R   23008.09411184  .00003615  00000-0  24520-3 0  9998,2 53603  53.2198  31.6126 0002330  37.2667 322.8486 15.08824862 20385,6917.927,95.439,541.404,538.18,0.0
